IRIDIUM 171             
1 43929U 19002H   24323.78035854  .00000546  00000+0  18781-3 0  9995
2 43929  86.4003 234.2334 0001925  76.0737 284.0673 14.34218654306487
IRIDIUM 170             
1 43930U 19002J   24323.88651528  .00001817  00000+0  28406-3 0  9997
2 43930  86.6124 233.9811 0002234  86.3456 273.8016 14.72271010314615
IRIDIUM 167             
1 43931U 19002K   24324.26239594  .00000553  00000+0  19046-3 0  9992
2 43931  86.3996 233.8069 0002211  73.7869 286.3570 14.34218822306555
IRIDIUM 181             
1 56726U 23068S   24324.44552336  .00000317  00000+0  87697-4 0  9993
2 56726  86.8589 295.0136 0002139  81.8021 278.3423 14.43592857 79534
IRIDIUM 177             
1 56727U 23068T   24324.10056869  .00002513  00000+0  32738-3 0  9992
2 56727  86.1989 241.7787 0002774  71.7555 288.3967 14.80215790 81296
IRIDIUM 174             
1 56728U 23068U   24323.89230130  .00002571  00000+0  33485-3 0  9997
2 56728  86.1995 241.9935 0002368  88.3549 271.7943 14.80226188 81267
IRIDIUM 178             
1 56729U 23068V   24323.88688214  .00002485  00000+0  32351-3 0  9992
2 56729  86.5763 266.7868 0002709  74.8425 285.3096 14.80236400 81265
IRIDIUM 179             
1 56730U 23068W   24323.88139423  .00002424  00000+0  31589-3 0  9992
2 56730  86.6766 272.8744 0002858  86.1925 273.9624 14.80186477 81266
